[
    {
        "Altitude(m)": 566762.8173994501,
        "Argument of Periapsis(deg)": -0.03013754771062987,
        "Eccentricity": 0.0,
        "Inclination(deg)": 97.0,
        "Latitude(deg)": -2.269233180964444,
        "Longitude(deg)": -72.85944744837647,
        "Mean Anomaly(deg)": -2.1190089744166247,
        "RAAN(deg)": 30.00792940482468,
        "Satellite Name": "Starlink Shell 3 1692",
        "Satellite Number": 1692,
        "Semi-Major Axis(m)": 6938478.169268562,
        "Time(s)": 760
    },
    {
        "Altitude(m)": 566668.3772129795,
        "Argument of Periapsis(deg)": -0.030534094391032898,
        "Eccentricity": 0.0,
        "Inclination(deg)": 97.0,
        "Latitude(deg)": -1.6448988867198588,
        "Longitude(deg)": -72.97745404385039,
        "Mean Anomaly(deg)": -1.4935327767116202,
        "RAAN(deg)": 30.00803373909869,
        "Satellite Name": "Starlink Shell 3 1692",
        "Satellite Number": 1692,
        "Semi-Major Axis(m)": 6938478.169268562,
        "Time(s)": 770
    },
    {
        "Altitude(m)": 566578.1995938201,
        "Argument of Periapsis(deg)": -0.030930641071435925,
        "Eccentricity": 0.0,
        "Inclination(deg)": 97.0,
        "Latitude(deg)": -1.020542039756136,
        "Longitude(deg)": -73.09541543409793,
        "Mean Anomaly(deg)": -0.8680565790065586,
        "RAAN(deg)": 30.008138073372695,
        "Satellite Name": "Starlink Shell 3 1692",
        "Satellite Number": 1692,
        "Semi-Major Axis(m)": 6938478.169268562,
        "Time(s)": 780
    },
    {
        "Altitude(m)": 566492.2989217091,
        "Argument of Periapsis(deg)": -0.031327187751838945,
        "Eccentricity": 0.0,
        "Inclination(deg)": 97.0,
        "Latitude(deg)": -0.3961656322488936,
        "Longitude(deg)": -73.21334919830743,
        "Mean Anomaly(deg)": -0.24258038130150636,
        "RAAN(deg)": 30.008242407646705,
        "Satellite Name": "Starlink Shell 3 1692",
        "Satellite Number": 1692,
        "Semi-Major Axis(m)": 6938478.169268562,
        "Time(s)": 790
    },
    {
        "Altitude(m)": 566410.6875011082,
        "Argument of Periapsis(deg)": -0.031723734432241975,
        "Eccentricity": 0.0,
        "Inclination(deg)": 97.0,
        "Latitude(deg)": 0.22822734147804713,
        "Longitude(deg)": -73.33127339501874,
        "Mean Anomaly(deg)": 0.3828958164035523,
        "RAAN(deg)": 30.008346741920718,
        "Satellite Name": "Starlink Shell 3 1692",
        "Satellite Number": 1692,
        "Semi-Major Axis(m)": 6938478.169268562,
        "Time(s)": 800
    },
    {
        "Altitude(m)": 566333.37555828,
        "Argument of Periapsis(deg)": -0.032120281112645,
        "Eccentricity": 0.0,
        "Inclination(deg)": 97.0,
        "Latitude(deg)": 0.8526338848814412,
        "Longitude(deg)": -73.44920607449882,
        "Mean Anomaly(deg)": 1.0083720141085664,
        "RAAN(deg)": 30.00845107619472,
        "Satellite Name": "Starlink Shell 3 1692",
        "Satellite Number": 1692,
        "Semi-Major Axis(m)": 6938478.169268562,
        "Time(s)": 810
    },
    {
        "Altitude(m)": 566260.371239476,
        "Argument of Periapsis(deg)": -0.03251682779304802,
        "Eccentricity": 0.0,
        "Inclination(deg)": 97.0,
        "Latitude(deg)": 1.4770509991297087,
        "Longitude(deg)": -73.56716479110301,
        "Mean Anomaly(deg)": 1.6338482118135678,
        "RAAN(deg)": 30.008555410468734,
        "Satellite Name": "Starlink Shell 3 1692",
        "Satellite Number": 1692,
        "Semi-Major Axis(m)": 6938478.169268562,
        "Time(s)": 820
    },
    {
        "Altitude(m)": 566191.6806101303,
        "Argument of Periapsis(deg)": -0.032913374473451044,
        "Eccentricity": 0.0,
        "Inclination(deg)": 97.0,
        "Latitude(deg)": 2.101475683032839,
        "Longitude(deg)": -73.6851676285258,
        "Mean Anomaly(deg)": 2.259324409518626,
        "RAAN(deg)": 30.008659744742744,
        "Satellite Name": "Starlink Shell 3 1692",
        "Satellite Number": 1692,
        "Semi-Major Axis(m)": 6938478.169268562,
        "Time(s)": 830
    },
    {
        "Altitude(m)": 566127.3076551493,
        "Argument of Periapsis(deg)": -0.03330992115385407,
        "Eccentricity": 0.0,
        "Inclination(deg)": 97.0,
        "Latitude(deg)": 2.725904932969629,
        "Longitude(deg)": -73.80323271222835,
        "Mean Anomaly(deg)": 2.884800607223685,
        "RAAN(deg)": 30.00876407901675,
        "Satellite Name": "Starlink Shell 3 1692",
        "Satellite Number": 1692,
        "Semi-Major Axis(m)": 6938478.169268562,
        "Time(s)": 840
    },
    {
        "Altitude(m)": 566067.2542802497,
        "Argument of Periapsis(deg)": -0.0337064678342571,
        "Eccentricity": 0.0,
        "Inclination(deg)": 97.0,
        "Latitude(deg)": 3.3503357428095546,
        "Longitude(deg)": -73.92137772194899,
        "Mean Anomaly(deg)": 3.510276804928744,
        "RAAN(deg)": 30.00886841329076,
        "Satellite Name": "Starlink Shell 3 1692",
        "Satellite Number": 1692,
        "Semi-Major Axis(m)": 6938478.169268562,
        "Time(s)": 850
    },
    {
        "Altitude(m)": 566011.5203143443,
        "Argument of Periapsis(deg)": -0.03410301451466012,
        "Eccentricity": 0.0,
        "Inclination(deg)": 97.0,
        "Latitude(deg)": 3.9747651038256397,
        "Longitude(deg)": -74.03962108529956,
        "Mean Anomaly(deg)": 4.1357530026337965,
        "RAAN(deg)": 30.00897274756477,
        "Satellite Name": "Starlink Shell 3 1692",
        "Satellite Number": 1692,
        "Semi-Major Axis(m)": 6938478.169268562,
        "Time(s)": 860
    },
    {
        "Altitude(m)": 565960.1035130002,
        "Argument of Periapsis(deg)": -0.034499561195063144,
        "Eccentricity": 0.0,
        "Inclination(deg)": 97.0,
        "Latitude(deg)": 4.59919000459721,
        "Longitude(deg)": -74.15798065005602,
        "Mean Anomaly(deg)": 4.76122920033881,
        "RAAN(deg)": 30.009077081838775,
        "Satellite Name": "Starlink Shell 3 1692",
        "Satellite Number": 1692,
        "Semi-Major Axis(m)": 6938478.169268562,
        "Time(s)": 870
    },
    {
        "Altitude(m)": 565912.9995629299,
        "Argument of Periapsis(deg)": -0.03489610787546617,
        "Eccentricity": 0.0,
        "Inclination(deg)": 97.0,
        "Latitude(deg)": 5.223607430898577,
        "Longitude(deg)": -74.27647487808818,
        "Mean Anomaly(deg)": 5.386705398043862,
        "RAAN(deg)": 30.009181416112785,
        "Satellite Name": "Starlink Shell 3 1692",
        "Satellite Number": 1692,
        "Semi-Major Axis(m)": 6938478.169268562,
        "Time(s)": 880
    },
    {
        "Altitude(m)": 565870.2020875562,
        "Argument of Periapsis(deg)": -0.0352926545558692,
        "Eccentricity": 0.0,
        "Inclination(deg)": 97.0,
        "Latitude(deg)": 5.848014365571525,
        "Longitude(deg)": -74.3951223585372,
        "Mean Anomaly(deg)": 6.01218159574892,
        "RAAN(deg)": 30.0092857503868,
        "Satellite Name": "Starlink Shell 3 1692",
        "Satellite Number": 1692,
        "Semi-Major Axis(m)": 6938478.169268562,
        "Time(s)": 890
    },
    {
        "Altitude(m)": 565831.7026536034,
        "Argument of Periapsis(deg)": -0.035689201236272214,
        "Eccentricity": 0.0,
        "Inclination(deg)": 97.0,
        "Latitude(deg)": 6.472407788379311,
        "Longitude(deg)": -74.513941321247,
        "Mean Anomaly(deg)": 6.637657793453979,
        "RAAN(deg)": 30.0093900846608,
        "Satellite Name": "Starlink Shell 3 1692",
        "Satellite Number": 1692,
        "Semi-Major Axis(m)": 6938478.169268562,
        "Time(s)": 900
    },
    {
        "Altitude(m)": 565797.4907787493,
        "Argument of Periapsis(deg)": -0.036085747916675244,
        "Eccentricity": 0.0,
        "Inclination(deg)": 97.0,
        "Latitude(deg)": 7.0967846758381565,
        "Longitude(deg)": -74.63295066335917,
        "Mean Anomaly(deg)": 7.263133991159037,
        "RAAN(deg)": 30.009494418934814,
        "Satellite Name": "Starlink Shell 3 1692",
        "Satellite Number": 1692,
        "Semi-Major Axis(m)": 6938478.169268562,
        "Time(s)": 910
    },
    {
        "Altitude(m)": 565767.5539402931,
        "Argument of Periapsis(deg)": -0.03648229459707827,
        "Eccentricity": 0.0,
        "Inclination(deg)": 97.0,
        "Latitude(deg)": 7.721142001024678,
        "Longitude(deg)": -74.7521694633614,
        "Mean Anomaly(deg)": 7.88861018886404,
        "RAAN(deg)": 30.009598753208827,
        "Satellite Name": "Starlink Shell 3 1692",
        "Satellite Number": 1692,
        "Semi-Major Axis(m)": 6938478.169268562,
        "Time(s)": 920
    },
    {
        "Altitude(m)": 565741.8775848951,
        "Argument of Periapsis(deg)": -0.0368788412774813,
        "Eccentricity": 0.0,
        "Inclination(deg)": 97.0,
        "Latitude(deg)": 8.345476733355953,
        "Longitude(deg)": -74.87161649550247,
        "Mean Anomaly(deg)": 8.514086386569105,
        "RAAN(deg)": 30.00970308748283,
        "Satellite Name": "Starlink Shell 3 1692",
        "Satellite Number": 1692,
        "Semi-Major Axis(m)": 6938478.169268562,
        "Time(s)": 930
    },
    {
        "Altitude(m)": 565720.4451392816,
        "Argument of Periapsis(deg)": -0.037275387957884314,
        "Eccentricity": 0.0,
        "Inclination(deg)": 97.0,
        "Latitude(deg)": 8.969785838338192,
        "Longitude(deg)": -74.99131125748546,
        "Mean Anomaly(deg)": 9.139562584274158,
        "RAAN(deg)": 30.009807421756843,
        "Satellite Name": "Starlink Shell 3 1692",
        "Satellite Number": 1692,
        "Semi-Major Axis(m)": 6938478.169268562,
        "Time(s)": 940
    }
]